{
  "links" : {
    "next" : "https://api.nasa.gov/neo/rest/v1/feed?start_date=2013-12-23&end_date=2013-12-23&detailed=true&api_key=t0TVs3DtDT2H8Oy2Zy8m2eVrNsAVKAexjcZXUckd",
    "prev" : "https://api.nasa.gov/neo/rest/v1/feed?start_date=2013-12-21&end_date=2013-12-21&detailed=true&api_key=t0TVs3DtDT2H8Oy2Zy8m2eVrNsAVKAexjcZXUckd",
    "self" : "https://api.nasa.gov/neo/rest/v1/feed?start_date=2013-12-22&end_date=2013-12-22&detailed=true&api_key=t0TVs3DtDT2H8Oy2Zy8m2eVrNsAVKAexjcZXUckd"
  },
  "element_count" : 8,
  "near_earth_objects" : {
    "2013-12-22" : [ {
      "links" : {
        "self" : "https://api.nasa.gov/neo/rest/v1/neo/3654339?api_key=t0TVs3DtDT2H8Oy2Zy8m2eVrNsAVKAexjcZXUckd"
      },
      "neo_reference_id" : "3654339",
      "name" : "(2013 XA4)",
      "nasa_jpl_url" : "http://ssd.jpl.nasa.gov/sbdb.cgi?sstr=3654339",
      "absolute_magnitude_h" : 21.5,
      "estimated_diameter" : {
        "kilometers" : {
          "estimated_diameter_min" : 0.1332155667,
          "estimated_diameter_max" : 0.2978790628
        },
        "meters" : {
          "estimated_diameter_min" : 133.2155666981,
          "estimated_diameter_max" : 297.8790627982
        },
        "miles" : {
          "estimated_diameter_min" : 0.0827762899,
          "estimated_diameter_max" : 0.1850934111
        },
        "feet" : {
          "estimated_diameter_min" : 437.0589598459,
          "estimated_diameter_max" : 977.2935443908
        }
      },
      "is_potentially_hazardous_asteroid" : false,
      "close_approach_data" : [ {
        "close_approach_date" : "2013-12-22",
        "epoch_date_close_approach" : 1387699200000,
        "relative_velocity" : {
          "kilometers_per_second" : "7.4371874159",
          "kilometers_per_hour" : "26773.8746970668",
          "miles_per_hour" : "16636.2445305191"
        },
        "miss_distance" : {
          "astronomical" : "0.1123936452",
          "lunar" : "43.7211303711",
          "kilometers" : "16813850",
          "miles" : "10447642"
        },
        "orbiting_body" : "Earth"
      } ],
      "orbital_data" : {
        "orbit_id" : "41",
        "orbit_determination_date" : "2017-04-06 08:43:25",
        "orbit_uncertainty" : "4",
        "minimum_orbit_intersection" : ".115533",
        "jupiter_tisserand_invariant" : "3.089",
        "epoch_osculation" : "2458000.5",
        "eccentricity" : ".5901935497516498",
        "semi_major_axis" : "2.677205169915546",
        "inclination" : "8.474175268183558",
        "ascending_node_longitude" : "85.33903189254065",
        "orbital_period" : "1600.003414103268",
        "perihelion_distance" : "1.097135947269621",
        "perihelion_argument" : "6.86277036032148",
        "aphelion_distance" : "4.257274392561471",
        "perihelion_time" : "2458250.100661598891",
        "mean_anomaly" : "303.8399709753361",
        "mean_motion" : ".2249995198927524",
        "equinox" : "J2000"
      }
    }, {
      "links" : {
        "self" : "https://api.nasa.gov/neo/rest/v1/neo/3703071?api_key=t0TVs3DtDT2H8Oy2Zy8m2eVrNsAVKAexjcZXUckd"
      },
      "neo_reference_id" : "3703071",
      "name" : "(2014 YQ15)",
      "nasa_jpl_url" : "http://ssd.jpl.nasa.gov/sbdb.cgi?sstr=3703071",
      "absolute_magnitude_h" : 21.2,
      "estimated_diameter" : {
        "kilometers" : {
          "estimated_diameter_min" : 0.1529519353,
          "estimated_diameter_max" : 0.3420109247
        },
        "meters" : {
          "estimated_diameter_min" : 152.9519353442,
          "estimated_diameter_max" : 342.0109247198
        },
        "miles" : {
          "estimated_diameter_min" : 0.095039897,
          "estimated_diameter_max" : 0.2125156703
        },
        "feet" : {
          "estimated_diameter_min" : 501.8108275547,
          "estimated_diameter_max" : 1122.0831222578
        }
      },
      "is_potentially_hazardous_asteroid" : true,
      "close_approach_data" : [ {
        "close_approach_date" : "2013-12-22",
        "epoch_date_close_approach" : 1387699200000,
        "relative_velocity" : {
          "kilometers_per_second" : "15.8742644938",
          "kilometers_per_hour" : "57147.352177567",
          "miles_per_hour" : "35509.142246111"
        },
        "miss_distance" : {
          "astronomical" : "0.2447920565",
          "lunar" : "95.2241134644",
          "kilometers" : "36620372",
          "miles" : "22754844"
        },
        "orbiting_body" : "Earth"
      } ],
      "orbital_data" : {
        "orbit_id" : "42",
        "orbit_determination_date" : "2017-02-10 06:20:12",
        "orbit_uncertainty" : "1",
        "minimum_orbit_intersection" : ".00205491",
        "jupiter_tisserand_invariant" : "6.220",
        "epoch_osculation" : "2457800.5",
        "eccentricity" : ".2358719473431487",
        "semi_major_axis" : ".9638278239134389",
        "inclination" : "10.91054040984832",
        "ascending_node_longitude" : "81.88210072360202",
        "orbital_period" : "345.6190053351049",
        "perihelion_distance" : ".7364878781834666",
        "perihelion_argument" : "252.308444111348",
        "aphelion_distance" : "1.191167769643411",
        "perihelion_time" : "2457959.665179627926",
        "mean_anomaly" : "194.2120549461768",
        "mean_motion" : "1.041609386182197",
        "equinox" : "J2000"
      }
    }, {
      "links" : {
        "self" : "https://api.nasa.gov/neo/rest/v1/neo/3735613?api_key=t0TVs3DtDT2H8Oy2Zy8m2eVrNsAVKAexjcZXUckd"
      },
      "neo_reference_id" : "3735613",
      "name" : "(2015 XE)",
      "nasa_jpl_url" : "http://ssd.jpl.nasa.gov/sbdb.cgi?sstr=3735613",
      "absolute_magnitude_h" : 24.7,
      "estimated_diameter" : {
        "kilometers" : {
          "estimated_diameter_min" : 0.0305179233,
          "estimated_diameter_max" : 0.0682401509
        },
        "meters" : {
          "estimated_diameter_min" : 30.5179232594,
          "estimated_diameter_max" : 68.2401509401
        },
        "miles" : {
          "estimated_diameter_min" : 0.0189629525,
          "estimated_diameter_max" : 0.0424024508
        },
        "feet" : {
          "estimated_diameter_min" : 100.1244233463,
          "estimated_diameter_max" : 223.8850168104
        }
      },
      "is_potentially_hazardous_asteroid" : false,
      "close_approach_data" : [ {
        "close_approach_date" : "2013-12-22",
        "epoch_date_close_approach" : 1387699200000,
        "relative_velocity" : {
          "kilometers_per_second" : "13.337542741",
          "kilometers_per_hour" : "48015.1538676101",
          "miles_per_hour" : "29834.7493573492"
        },
        "miss_distance" : {
          "astronomical" : "0.256361306",
          "lunar" : "99.7245483398",
          "kilometers" : "38351104",
          "miles" : "23830272"
        },
        "orbiting_body" : "Earth"
      } ],
      "orbital_data" : {
        "orbit_id" : "23",
        "orbit_determination_date" : "2017-08-10 06:19:29",
        "orbit_uncertainty" : "5",
        "minimum_orbit_intersection" : ".0108722",
        "jupiter_tisserand_invariant" : "4.331",
        "epoch_osculation" : "2458000.5",
        "eccentricity" : ".3695341299100915",
        "semi_major_axis" : "1.571887830039379",
        "inclination" : "2.389826095127953",
        "ascending_node_longitude" : "245.7035611531951",
        "orbital_period" : "719.8313452244388",
        "perihelion_distance" : ".9910216284495151",
        "perihelion_argument" : "158.244462978682",
        "aphelion_distance" : "2.152754031629243",
        "perihelion_time" : "2458056.002694392080",
        "mean_anomaly" : "332.2421507291837",
        "mean_motion" : ".5001171488131769",
        "equinox" : "J2000"
      }
    } ]
  }
}